1 56122U 23046AF  24119.80115891  .00013520  00000+0  10141-2 0  9990
2 56122  43.0012 252.8791 0001590 284.0748  75.9918 15.02531391 59799
STARLINK-6115           
1 56123U 23046AH  24119.71841361  .00000046  00000+0  18507-4 0  9994
2 56123  43.0029 241.0038 0001341 252.0377 108.0320 15.02526138 59922
STARLINK-6126           
1 56124U 23046AJ  24119.73172986 -.00000907  00000+0 -52068-4 0  9995
2 56124  43.0009 241.1051 0001336 266.4724  93.5966 15.02529985 59923
STARLINK-6119           
1 56125U 23046AK  24119.52230710  .00000578  00000+0  57888-4 0  9990
2 56125  43.0028 242.1129 0001394 269.5891  90.4791 15.02532838 59894
STARLINK-6124           
1 56126U 23046AL  24119.51564074 -.00007819  00000+0 -56465-3 0  9999
2 56126  43.0019 242.0606 0001482 285.9745  74.0934 15.02515918 59899
STARLINK-6104           
1 56127U 23046AM  24119.64082994 -.00003973  00000+0 -27924-3 0  9995
2 56127  43.0029 241.2837 0001436 284.0339  76.0343 15.02526135 59918
STARLINK-6122           
1 56128U 23046AN  24119.65747825  .00018743  00000+0  13999-2 0  9993
2 56128  43.0023 241.4070 0001528 273.1105  86.9562 15.02507102 59912
STARLINK-6121           
1 56129U 23046AP  24119.91111778 -.00001518  00000+0 -97336-4 0  9998
2 56129  43.0014 187.9751 0000830 288.9029  71.1723 15.02529367 60551
STARLINK-6117           
1 56130U 23046AQ  24119.64527285  .00000295  00000+0  36890-4 0  9991
2 56130  43.0034 241.3170 0001363 261.3313  98.7375 15.02534737 59911
STARLINK-6120           
1 56131U 23046AR  24119.63084141 -.00004216  00000+0 -29729-3 0  9991
2 56131  43.0023 241.2051 0001296 283.4605  76.6093 15.02524953 59912
STARLINK-6071           
1 56132U 23046AS  24119.64194148  .00005156  00000+0  39651-3 0  9999
2 56132  43.0019 241.2890 0001494 261.2983  98.7690 15.02530754 59916
STARLINK-5566           
1 56133U 23046AT  24119.69843241  .00010630  00000+0  80087-3 0  9992
2 56133  43.0021 240.8525 0001344 281.4861  78.5831 15.02531125 59920
STARLINK-5564           
1 56134U 23046AU  24119.70509688 -.00001708  00000+0 -11144-3 0  9995
2 56134  43.0002 240.9026 0000789 269.0964  90.9787 15.02524951 59922
STARLINK-5563           
1 56135U 23046AV  24119.91667824  .00946830  40084-3  24296-2 0  9999
2 56135  42.9949 153.9747 0001882 266.8671 119.7864 15.94478116  5984
STARLINK-5489           
1 56136U 23046AW  24119.76712668 -.00002039  00000+0 -13596-3 0  9998
2 56136  43.0017 240.5061 0001477 261.7223  98.3452 15.02528088 59934
STARLINK-5090           
1 56137U 23046AX  24119.67845336 -.00004241  00000+0 -29916-3 0  9998
2 56137  43.0026 240.7000 0001286 274.7009  85.3686 15.02522401 59921
STARLINK-4774           
1 56138U 23046AY  24119.69399694 -.00000088  00000+0  85571-5 0  9997
2 56138  43.0034 240.8180 0001277 270.4723  89.5973 15.02529589 59926
STARLINK-5378           
1 56139U 23046AZ  24119.58606776 -.00002723  00000+0 -18174-4 0  9991
2 56139  42.9983 220.1308 0001708 273.4087  86.6585 15.70289147 60158
STARLINK-5375           
1 56140U 23046BA  24119.62528137  .00028517  00000+0  21193-2 0  9992
2 56140  43.0021 241.1629 0001704 282.8742  77.1909 15.02503593 59918
STARLINK-5377           
1 56141U 23046BB  24119.74382211 -.00001392  00000+0 -87976-4 0  9994
2 56141  43.0012 240.3283 0001159 263.3257  96.7454 15.02531810 59932
STARLINK-5376           
1 56142U 23046BC  24119.75491496  .00008594  00000+0  65022-3 0  9998
2 56142  43.0005 240.4128 0001217 273.4841  86.5862 15.02551215 59931
STARLINK-5016           
1 56143U 23046BD  24119.73826889  .00022286  00000+0  16594-2 0  9998
2 56143  43.0022 240.2881 0001586 279.4336  80.6327 15.02539395 59935
STARLINK-5374           
1 56144U 23046BE  24119.75158935  .00015895  00000+0  11889-2 0  9991
2 56144  43.0020 240.3878 0001878 263.9679  96.0949 15.02541328 59933
STARLINK-5370           
1 56145U 23046BF  24119.91667824  .00934238  40303-3  21059-2 0  9997
2 56145  42.9934 164.3954 0002352 270.1139  77.7279 15.96859288  6018
STARLINK-5111           
1 56146U 23046BG  24119.74048378 -.00007350  00000+0 -52952-3 0  9997
2 56146  43.0011 240.3027 0001479 290.8801  69.1883 15.02540448 59934
STARLINK-5140           
1 56147U 23046BH  24119.91528305  .00000751  00000+0  70650-4 0  9992
2 56147  43.0011 200.8204 0000815 285.8589  74.2163 15.02527274 60407
STARLINK-5089           
1 56148U 23046BJ  24119.91861109  .00011771  00000+0  88425-3 0  9997
2 56148  43.0003 200.8488 0001245 277.9739  82.0962 15.02565470 60404
STARLINK-30107          
1 56287U 23056B   24119.89870919 -.00008910  00000+0 -64557-3 0  9991
2 56287  43.0039 304.2374 0001900 278.6347  81.4280 15.02521739 57818
STARLINK-30106          
1 56288U 23056C   24119.86542884  .00015958  00000+0  11936-2 0  9996
2 56288  43.0039 304.0093 0002020 287.3910  72.6711 15.02539150 57763
STARLINK-30095          
1 56289U 23056D   24119.82939084 -.00002618  00000+0 -17872-3 0  9992
2 56289  43.0018 278.4403 0002732 283.5254  76.5284 15.02537621 58051
STARLINK-30103          
1 56290U 23056E   24119.86209654  .00001315  00000+0  11246-3 0  9991
2 56290  43.0035 303.9847 0002344 284.1349  75.9233 15.02531306 57767
STARLINK-30113          
1 56291U 23056F   24119.86875737  .00011321  00000+0  85178-3 0  9996
2 56291  43.0038 304.0274 0001948 284.7436  75.3190 15.02535044 57768
STARLINK-30098          
1 56292U 23056G   24119.92523858 -.00000307  00000+0 -76349-5 0  9994
2 56292  43.0014 303.5880 0001899 273.3264  86.7361 15.02533558 57773
STARLINK-30090          
1 56293U 23056H   24119.91869812  .00001394  00000+0  11828-3 0  9991
2 56293  43.0029 304.3763 0001575 276.9883  83.0780 15.02534505 57763
STARLINK-30049          
1 56294U 23056J   24119.91535609 -.00001326  00000+0 -83058-4 0  9998
2 56294  43.0015 304.2956 0002293 271.7263  88.3317 15.02531639 57764
STARLINK-30083          
1 56295U 23056K   24119.84272632 -.00002675  00000+0 -18308-3 0  9998
2 56295  43.0001 278.5243 0001882 275.7785  84.2843 15.02527700 58054
STARLINK-30089          
1 56296U 23056L   24119.71002329  .00021653  00000+0  16140-2 0  9995
2 56296  43.0029 266.2126 0001479 276.4569  83.6105 15.02513309 58187
STARLINK-30086          
1 56297U 23056M   24119.82890644  .00006855  00000+0  52212-3 0  9991
2 56297  43.0019 304.5120 0001250 271.1391  88.9308 15.02529071 57757
STARLINK-30109          
1 56298U 23056N   24119.90203996 -.00002110  00000+0 -14116-3 0  9992
2 56298  43.0029 304.2024 0002053 273.5036  86.5571 15.02531318 57824
STARLINK-30108          
1 56299U 23056P   24119.86912128  .00018154  00000+0  13554-2 0  9999
2 56299  43.0040 291.8179 0002255 265.3891  94.6694 15.02537975 57968
STARLINK-30104          
1 56300U 23056Q   24119.78896237  .00000574  00000+0  57570-4 0  9990
2 56300  43.0024 304.2950 0001585 266.4940  93.5721 15.02529974 57814
STARLINK-30101          
1 56301U 23056R   24119.88537962 -.00025151  00000+0 -18541-2 0  9992
2 56301  43.0034 304.1378 0002098 278.3277  81.7327 15.02520520 57172
STARLINK-30111          
1 56302U 23056S   24119.87873559 -.00002631  00000+0 -17983-3 0  9995
2 56302  43.0020 304.0289 0001521 287.4690  72.5986 15.02522799 57829
STARLINK-30097          
1 56303U 23056T   24119.91667824  .00056819  00000+0  12378-2 0  9994
2 56303  42.9981 251.5484 0034106 327.2352  14.7495 15.42836179  5897
STARLINK-30099          
1 56304U 23056U   24119.87540425  .00000941  00000+0  84730-4 0  9995
2 56304  43.0040 303.9897 0001702 281.3210  78.7441 15.02530386 57823
STARLINK-30094          
1 56305U 23056V   24119.87207335 -.00003641  00000+0 -25467-3 0  9999
2 56305  43.0014 303.9549 0001678 284.9634  75.1023 15.02524881 57820
STARLINK-30112          
1 56306U 23056W   24119.81556001  .00018771  00000+0  13991-2 0  9997
2 56306  43.0019 304.4110 0002186 271.9865  88.0727 15.02584708 57810
STARLINK-6038           
1 56317U 23058A   24119.95619258  .00000978  00000+0  80687-4 0  9998
2 56317  97.6575 121.4276 0001747  92.2576 267.8849 15.01262113 55798
STARLINK-5954           
1 56318U 23058B   24119.95249434  .00000008  00000+0  52278-5 0  9994
2 56318  97.6565 121.4352 0001821  93.3113 266.8320 15.01256382 55799
STARLINK-6039           
1 56319U 23058C   24119.95064188  .00001129  00000+0  92509-4 0  9991
2 56319  97.6566 121.4386 0002480  92.8935 267.2573 15.01259726 55796
STARLINK-5988           
1 56320U 23058D   24119.95643785  .00001023  00000+0  84215-4 0  9997
2 56320  97.6577 121.4275 0001886  90.5770 269.5670 15.01261905 55805
STARLINK-5876           
1 56321U 23058E   24119.94508522 -.00080556  00000+0 -63435-2 0  9995
2 56321  97.6564 121.4487 0002664  94.0449 266.1080 15.01229618 55795
STARLINK-6033           
1 56322U 23058F   24119.95434159  .00000717  00000+0  60404-4 0  9995
2 56322  97.6575 121.4320 0001778  91.3802 268.7626 15.01261296 55794
STARLINK-6035           
1 56323U 23058G   24119.94693641  .00000111  00000+0  13221-4 0  9991
2 56323  97.6565 121.4443 0002783  88.5204 271.6339 15.01262171 55787
STARLINK-6034           
1 56324U 23058H   24119.94878919  .00000244  00000+0  23570-4 0  9990
2 56324  97.6563 121.4417 0002285  89.9351 270.2135 15.01259951 55794
STARLINK-5981           
1 56325U 23058J   24119.93950942  .00002072  00000+0  16577-3 0  9996
2 56325  97.6542 121.4536 0004084  86.7239 273.4452 15.01282766 56140
STARLINK-5980           
1 56326U 23058K   24119.94903234  .00001053  00000+0  86595-4 0  9996
2 56326  97.6567 121.4417 0002079  93.1328 267.0135 15.01260211 55797
STARLINK-5997           
1 56327U 23058L   24119.93422473 -.00001502  00000+0 -11241-3 0  9993
2 56327  97.6536 121.4578 0003131  86.8768 273.2814 15.01247288 56141
STARLINK-5992           
1 56328U 23058M   24119.94138176  .00001822  00000+0  14647-3 0  9995
2 56328  97.6550 121.4513 0002637  92.0145 268.1381 15.01249745 56147
STARLINK-5984           
1 56329U 23058N   24119.93768105 -.00000161  00000+0 -79446-5 0  9993
